{
    "links": {
        "self": "http://www.neowsapp.com/rest/v1/neo/3615339?api_key=iIulBulltgU6a56xZRHN4H3l9WmuAYTsLGpBGhQ2"
    },
    "id": "3615339",
    "neo_reference_id": "3615339",
    "name": "(2012 UU169)",
    "designation": "2012 UU169",
    "nasa_jpl_url": "http://ssd.jpl.nasa.gov/sbdb.cgi?sstr=3615339",
    "absolute_magnitude_h": 25.6,
    "estimated_diameter": {
        "kilometers": {
            "estimated_diameter_min": 0.0201629919,
            "estimated_diameter_max": 0.0450858206
        },
        "meters": {
            "estimated_diameter_min": 20.1629919443,
            "estimated_diameter_max": 45.0858206172
        },
        "miles": {
            "estimated_diameter_min": 0.0125286985,
            "estimated_diameter_max": 0.0280150214
        },
        "feet": {
            "estimated_diameter_min": 66.1515504905,
            "estimated_diameter_max": 147.9193637137
        }
    },
    "is_potentially_hazardous_asteroid": false,
    "close_approach_data": [
        {
            "close_approach_date": "2012-10-29",
            "close_approach_date_full": "2012-Oct-29 05:28",
            "epoch_date_close_approach": 1351488480000,
            "relative_velocity": {
                "kilometers_per_second": "10.9469959707",
                "kilometers_per_hour": "39409.1854945988",
                "miles_per_hour": "24487.3352869078"
            },
            "miss_distance": {
                "astronomical": "0.006218479",
                "lunar": "2.418988331",
                "kilometers": "930271.21303973",
                "miles": "578043.727539074"
            },
            "orbiting_body": "Moon"
        },
        {
            "close_approach_date": "2012-10-29",
            "close_approach_date_full": "2012-Oct-29 12:02",
            "epoch_date_close_approach": 1351512120000,
            "relative_velocity": {
                "kilometers_per_second": "11.3713068089",
                "kilometers_per_hour": "40936.7045121109",
                "miles_per_hour": "25436.4762008725"
            },
            "miss_distance": {
                "astronomical": "0.0076672499",
                "lunar": "2.9825602111",
                "kilometers": "1147004.253797713",
                "miles": "712715.3942579194"
            },
            "orbiting_body": "Earth"
        }
    ],
    "orbital_data": {
        "orbit_id": "6",
        "orbit_determination_date": "2017-04-06 08:48:17",
        "first_observation_date": "2012-10-25",
        "last_observation_date": "2012-10-28",
        "data_arc_in_days": 3,
        "observations_used": 33,
        "orbit_uncertainty": "8",
        "minimum_orbit_intersection": ".00433807",
        "jupiter_tisserand_invariant": "3.177",
        "epoch_osculation": "2456226.5",
        "eccentricity": ".6252334823907613",
        "semi_major_axis": "2.469899392716266",
        "inclination": "5.833383370927519",
        "ascending_node_longitude": "215.198505687687",
        "orbital_period": "1417.807671445157",
        "perihelion_distance": ".9256355942534483",
        "perihelion_argument": "217.1896139318609",
        "aphelion_distance": "4.014163191179083",
        "perihelion_time": "2456256.693173981015",
        "mean_anomaly": "352.3335563404829",
        "mean_motion": ".2539131415709267",
        "equinox": "J2000",
        "orbit_class": {
            "orbit_class_type": "APO",
            "orbit_class_description": "Near-Earth asteroid orbits which cross the Earth’s orbit similar to that of 1862 Apollo",
            "orbit_class_range": "a (semi-major axis) > 1.0 AU; q (perihelion) < 1.017 AU"
        }
    },
    "is_sentry_object": false
}